#dP2024  7 22 18  0  0.00000000      96 __u+U IGS20 EXT  IAC
## 2324 151200.00000000   900.00000000 60513 0.7500000000000
+   54   G02G03G04G05G06G07G08G09G10G11G12G13G14G15G16G17G18
+        G19G20G21G22G23G24G25G26G27G28G29G30G31G32R01R02R03
+        R04R05R07R08R09R11R12R13R14R15R16R17R18R19R20R21R22
+        R24R25R26  0  0  0  0  0  0  0  0  0  0  0  0  0  0
+          0  0  0  0  0  0  0  0  0  0  0  0  0  0  0  0  0
++         8  7  9  7  8  7  9  7  8  8  8 10  6  6  9  7  8
++         8  8  8  7  8  7  9  9  7  8  8  7  9  8  8  7  9
++         8  9  8  9  6  8  8  8  7  7  9  9  8  8  7  8  7
++         8  9  7  0  0  0  0  0  0  0  0  0  0  0  0  0  0
++         0  0  0  0  0  0  0  0  0  0  0  0  0  0  0  0  0
%c M  cc GPS ccc cccc cccc cccc cccc ccccc ccccc ccccc ccccc
%c cc cc ccc ccc cccc cccc cccc cccc ccccc ccccc ccccc ccccc
%f  0.0000000  0.000000000  0.00000000000  0.000000000000000
%f  0.0000000  0.000000000  0.00000000000  0.000000000000000
%i    0    0    0    0      0      0      0      0         0
%i    0    0    0    0      0      0      0      0         0
/* IAC                                ULTRA-RAPID PREDICTION
/* S/V CLOCKS ARE ALIGNED TO GNSS TIME                      
/* G:C1WC2W R:C1PC2P E:C1XC5X C:C2IC6I J:C1CC2S             
/* PCV:IGS20_2317 OL/AL:FES2004  NONE     YN ORB:CoN CLK:CoN
*  2024 07 23  0 30  0.00000000
PG02 -21978.535186 -12352.078517   9312.833840   -393.805282
PG03 -14637.658266  -2116.531288  21888.595528    469.575170
PG04 -25272.460280  -1740.541950   8232.947934    409.245572
PG05   7625.055710  18025.783165 -18102.059487   -180.665862
PG06   -821.955349  18460.015927  19097.669785    145.218673
PG07 -16583.073466   2869.607842 -20128.309936    -64.762352
PG08 -18773.259234  -8220.815787 -17231.456853    285.663071
PG09 -25270.810273   7743.329664  -2994.308967    283.923576
PG10  10395.767740 -24034.576540  -2990.183538    -73.194109
PG11  10810.253161  22853.361913   8273.012647   -709.523893
PG12  13830.917656   5970.133504  21595.337940   -524.438743
PG13  10328.332838  13567.113938 -20641.963108    666.274063
PG14 -13220.373632  21907.999366  -6639.223825    455.101778
PG15  19552.377370   6514.028659 -17361.809540    184.127011
PG16  -3216.610016 -20784.683543 -16277.523762   -229.211682
PG17 -16810.418838  13417.692690  16110.765168    671.952545
PG18  15709.989619  -3600.636425 -21136.046131   -639.277225
PG19  -7699.052055  14792.368602  20407.184159    514.236285
PG20   2890.431666  24746.123829  -9352.349913    372.476990
PG21 -21299.703214 -16395.272841   4073.463323    107.238093
PG22  -9503.394798  24913.296020   2147.138932    -42.760526
PG23  15155.278627 -16297.146840 -14309.229900    280.063163
PG24  21694.162969  14278.884486   6081.456466   -484.163544
PG25  16589.423509  -6362.843311  19325.661959    498.756514
PG26   3482.018279 -25842.017083  -4013.016400    114.977498
PG27  -7740.360475 -13835.997206 -21650.915291    -31.717393
PG28   2664.048448 -17462.990062  19824.344862   -342.408944
PG29  26451.946108  -3062.442322     85.994408   -588.179962
PG30  -8640.188152  13589.509971 -20936.324177   -353.158261
PG31  -7149.381479 -22132.721217  12241.213892   -226.552746
PG32  14221.869072 -14908.262628  16862.699794   -610.679816
PR01  15941.518675 -16819.069238  10675.267579     92.208275
PR02   1617.778880 -12974.619558  21930.943047    -23.829455
PR03 -14534.731212  -2381.867072  20886.520975    104.229064
PR04 -22255.024998   9082.626355   8584.933239    246.411479
PR05 -18272.709419  15730.096929  -8354.259155    134.916817
PR07  14957.993858   1924.850109 -20518.834084     87.227221
PR08  22192.155104  -9430.824235  -8211.724063     -6.117051
PR09   3544.302748  24987.813380   3404.308436    199.196351
PR11  10864.669804  -1837.493252  23020.443213     17.335241
PR12   5757.289106 -20583.164111  13946.507606     42.764488
PR13  -1806.385238 -25434.660767   -702.799777    -49.684072
PR14  -9673.146012 -15062.006530 -18164.512651     26.717256
PR15 -10828.805630   3611.050881 -22784.940716     77.609262
PR16  -5642.762053  20461.074523 -14102.933407     27.600402
PR17 -21968.810002 -12752.123250  -2025.505682    106.998676
PR18 -20987.247940  -4354.000053  13872.688521    153.300883
PR19 -11100.219025   5070.362018  22393.212117   -284.854620
PR20   9289.279746  15034.761076  18383.730553   -116.557962
PR21  21753.475335  13120.317985   2496.790300   -119.779794
PR22  20485.957070   3866.679332 -14670.432698     83.681048
PR24 -10289.793981 -15015.351716 -17845.283605    -64.822518
PR25  21580.504100  13521.393641   1690.799607    -97.731500
PR26  21977.783586  -8713.960014  -9587.450356      5.721764
*  2024 07 23  0 45  0.00000000
PG02 -22478.632911 -13062.871843   6656.715096   -393.798578
PG03 -13893.388983  -4546.937343  22012.683487    469.589712
PG04 -24248.642801  -2149.159682  10804.537000    409.252509
PG05   7011.727597  19868.302371 -16307.932311   -180.666982
PG06  -2387.871284  16848.250131  20423.653910    145.197806
PG07 -18100.427152   1089.964384 -19035.201055    -64.755869
PG08 -16846.108697  -8871.013241 -18799.898730    285.677321
PG09 -25498.967985   7539.195378   -151.863609    283.937247
PG10  10438.913566 -23463.176047  -5853.073305    -73.203186
PG11   9945.794641  22159.345122  10846.522441   -709.529766
PG12  12911.268411   8315.886990  21394.694158   -524.441475
PG13   7983.431991  13817.373495 -21486.583734    666.276222
PG14 -13209.320806  20938.780825  -9273.220994    455.109788
PG15  17767.328182   7394.849110 -18888.932364    184.130874
PG16  -2390.768244 -22293.000605 -14214.694416   -229.202223
PG17 -18462.900256  13541.684915  14020.852193    671.945356
PG18  17237.010491  -1802.693974 -20172.446479   -639.280634
PG19 -10006.314936  14954.790011  19227.881537    514.241088
PG20   2536.671188  25634.766399  -6721.028000    372.476668
PG21 -21374.723061 -16689.853908   1297.887425    107.236001
PG22  -9733.716072  24860.036851   -689.525231    -42.764540
PG23  14834.987197 -14554.845035 -16388.094595    280.071140
PG24  21935.654407  14888.415300   3372.815740   -484.164769
PG25  16059.113413  -4071.825142  20369.802116    498.756814
PG26   3902.399703 -26044.242149  -1219.213355    114.971142
PG27  -5379.264427 -14409.039709 -21957.251451    -31.718110
PG28   4368.076822 -15874.247433  20831.897454   -342.423019
PG29  26308.471988  -2821.467847   2947.535344   -588.178254
PG30 -10349.252657  11823.418967 -21252.694096   -353.152336
PG31  -5917.546825 -21118.136805  14483.812990   -226.552465
PG32  16002.310086 -15153.911487  14891.485774   -610.677813
PR01  16782.655774 -17594.550739   7732.139683     92.209453
PR02   3767.049773 -14478.932361  20682.427655    -23.829572
PR03 -12315.225599  -3811.465462  22065.377099    104.229668
PR04 -21134.816439   8536.478880  11491.552810    246.412990
PR05 -18879.364872  16339.685269  -5271.149497    134.917341
PR07  12752.012055   3342.791122 -21788.941491     87.227975
PR08  21113.204401  -8877.328661 -11135.829590     -6.117169
PR09   3650.996499  25198.929246    224.763355    199.198187
PR11  11107.403785    985.101587  22955.067202     17.334117
PR12   5805.436235 -18717.061446  16353.991870     42.764910
PR13  -1924.148375 -25311.946809   2497.805204    -49.684381
PR14  -9934.185795 -17159.758976 -16043.331838     26.717282
PR15 -11043.328284    791.405115 -22954.418065     77.608980
PR16  -5689.128708  18565.231266 -16503.694990     27.600693
PR17 -21647.768126 -12388.058909  -5221.104625    107.001726
PR18 -22442.979774  -4893.911819  11147.238135    153.302616
PR19 -13506.725378   3841.901140  21287.434119   -284.855827
PR20   7257.349413  13780.902133  20194.688167   -116.558450
PR21  21392.279929  12713.628359   5681.294233   -119.782649
PR22  21999.376595   4543.535277 -12055.854397     83.674969
PR24  -8244.954665 -13914.351278 -19703.540584    -64.823906
PR25  21295.398087  13198.918185   4868.538388    -97.733047
PR26  20773.009586  -8065.362715 -12416.126595      5.723540
EOF
